OBJECT_NAME,OBJECT_ID,EPOCH,MEAN_MOTION,ECCENTRICITY,INCLINATION,RA_OF_ASC_NODE,ARG_OF_PERICENTER,MEAN_ANOMALY,EPHEMERIS_TYPE,CLASSIFICATION_TYPE,NORAD_CAT_ID,ELEMENT_SET_NO,REV_AT_EPOCH,BSTAR,MEAN_MOTION_DOT,MEAN_MOTION_DDOT,SEMIMAJOR_AXIS,SATELLITE_TYPE,ORBITAL_PERIOD,ORBITAL_PERIOD_HOURS,ALTITUDE,PERIGEE,APOGEE
M2 PATHFINDER,2020-037E,2024-12-31T10:33:44.747136,15.00051406,0.0011662,97.7772,182.3437,161.3691,198.7961,0,U,45727,999,24548,0.00073378,9.096e-05,0.0,6944.874676236384,CubeSat,5759.805799746947,1.599946055485263,573.8746762363844,6936.775563388957,6952.9737890838105
AEROCUBE 8C,2016-067F,2024-12-31T23:39:16.751520,15.1360596,0.0007736,98.0924,186.0144,88.2242,271.9874,0,U,41853,999,44524,0.0011153,0.00020007,0.0,6903.350994090944,CubeSat,5708.225929684741,1.585618313801317,532.3509940909444,6898.010561761916,6908.691426419973
POPACS 1,2013-055D,2024-12-31T01:21:51.270624,15.16778884,0.0319531,80.9799,281.3107,167.5622,193.3743,0,U,39268,999,59159,0.00085584,0.00067199,9.3746e-08,6893.720299250215,CubeSat,5696.2849887600105,1.5823013857666697,522.7202992502152,6673.444565156244,7113.996033344187
TISAT 1,2010-035E,2024-12-31T11:37:54.499584,15.10256456,0.0002529,98.0699,265.2486,312.42,47.6813,0,U,36799,999,78675,0.0016766,0.00027451,0.0,6913.55423385021,CubeSat,5720.885849467517,1.5891349581854213,542.55423385021,6911.805795984469,6915.302671715951
DELFI-N3XT,2013-066N,2024-12-31T11:50:07.322784,14.84280922,0.0091025,97.8385,280.3747,165.2058,195.1852,0,U,39428,999,59529,0.0016651,0.00014993,0.0,6993.980832523326,CubeSat,5821.003733279382,1.616945481466495,622.9808325233262,6930.318121995282,7057.64354305137
AEROCUBE 4.5A,2012-048K,2024-12-30T12:34:23.837664,15.21795555,0.0111027,64.6528,37.8514,317.9001,41.3633,0,U,38767,999,29021,0.0016017,0.00043329,0.0,6878.561646466735,CubeSat,5677.506915965045,1.5770852544347347,507.5616464667346,6802.191040074508,6954.93225285896
SITRO-AIS 51,2024-039M,2025-01-01T03:19:43.219488,15.50845878,0.00076,97.41,330.6358,204.8311,155.2576,0,U,59062,999,4701,0.0019855,0.00116183,0.0,6792.392096062064,CubeSat,5571.1563029974795,1.5475434174993,421.3920960620644,6787.229878069057,6797.554314055073
NETSAT-1,2020-068W,2024-12-31T08:31:32.784384,15.1920245,0.0009476,97.8304,328.2272,68.461,291.7633,0,U,46506,999,23399,0.0008692,0.00018274,0.0,6886.386700638909,CubeSat,5687.197771565839,1.5797771587682885,515.3867006389091,6879.861160601384,6892.9122406764345
BRITE-AUSTRIA,2013-009F,2024-12-31T14:04:40.293408,14.36131145,0.0010945,98.3817,188.7842,35.6986,324.493,0,U,39091,999,62059,0.0003262,9.08e-06,0.0,7149.446832423751,CubeSat,6016.166990234976,1.6711574972874932,778.4468324237514,7141.621762865663,7157.27190198184
SITRO-AIS 11 (SHEFFER),2023-091AU,2024-12-31T22:17:48.623136,15.1852976,0.0011208,97.586,60.0001,138.4693,221.7394,0,U,57208,999,8349,0.0013426,0.00027774,0.0,6888.420273569207,CubeSat,5689.717130204522,1.580476980612367,517.420273569207,6880.699732126591,6896.140815011823
PROMETHEUS 2-1,2016-067G,2025-01-01T00:24:11.695392,15.31633024,0.0009739,98.0906,197.7067,89.4729,270.7626,0,U,41854,999,44585,0.0020683,0.00063644,0.0,6849.076654471864,CubeSat,5641.041067156672,1.5669558519879645,478.07665447186355,6842.406338718074,6855.746970225653
CUBEBUG-2 (LO-74),2013-066AA,2024-12-31T13:59:05.142624,14.8731204,0.0065123,97.8344,306.7065,348.9371,11.0409,0,U,39440,999,59763,0.0015499,0.00014506,0.0,6984.475188387251,CubeSat,5809.140621357009,1.6136501725991692,613.4751883872514,6938.990190617917,7029.960186156586
SNAP-3 EDDIE,2015-058J,2024-12-31T20:21:05.402880,15.09589924,0.0127981,64.7647,53.653,244.0476,114.7414,0,U,40972,999,3757,0.0028083,0.00055219,0.0,6915.589120287331,CubeSat,5723.411802659436,1.5898366118498433,544.5891202873308,6827.082719166981,7004.095521407679
MOVE-II,2018-099Y,2024-12-31T20:22:44.581440,15.35518885,0.0004675,97.4927,70.1175,14.1524,345.985,0,U,43780,999,33303,0.0025418,0.000886,0.0,6837.516697717921,CubeSat,5626.765566088991,1.56299043502472,466.5166977179206,6834.320158661738,6840.713236774104
AEROCUBE 8C,2016-067F,2024-12-31T23:39:16.751520,15.1360596,0.0007736,98.0924,186.0144,88.2242,271.9874,0,U,41853,999,44524,0.0011153,0.00020007,0.0,6903.350994090944,CubeSat,5708.225929684741,1.585618313801317,532.3509940909444,6898.010561761916,6908.691426419973
CORVUS BC1,2017-042Y,2024-12-31T18:19:03.713952,15.01029535,0.0013072,97.3674,181.7302,84.7975,275.4742,0,U,42847,999,40706,0.00076257,9.71e-05,0.0,6941.857315534108,CubeSat,5756.052487133346,1.5989034686481518,570.8573155341082,6932.782919651242,6950.931711416975
BRITE-AUSTRIA,2013-009F,2024-12-31T14:04:40.293408,14.36131145,0.0010945,98.3817,188.7842,35.6986,324.493,0,U,39091,999,62059,0.0003262,9.08e-06,0.0,7149.446832423751,CubeSat,6016.166990234976,1.6711574972874932,778.4468324237514,7141.621762865663,7157.27190198184
HORYU-4,2016-012D,2024-12-31T15:57:39.132864,15.26864332,0.0007399,30.9996,119.4552,187.7533,172.2996,0,U,41340,999,48824,0.0013485,0.00036887,0.0,6863.329900486865,CubeSat,5658.659127153781,1.5718497575427168,492.329900486865,6858.251722693494,6868.408078280235
SITRO-AIS 12 (SMIRENNIY),2023-091AQ,2025-01-01T03:45:08.198496,15.18395368,0.0011404,97.5864,60.1755,137.167,223.0454,0,U,57204,999,8352,0.0014464,0.00029821,0.0,6888.826726741741,CubeSat,5690.220722668434,1.5806168674078984,517.8267267417414,6880.970708742565,6896.682744740917
DELFI-N3XT,2013-066N,2024-12-31T11:50:07.322784,14.84280922,0.0091025,97.8385,280.3747,165.2058,195.1852,0,U,39428,999,59529,0.0016651,0.00014993,0.0,6993.980832523326,CubeSat,5821.003733279382,1.616945481466495,622.9808325233262,6930.318121995282,7057.64354305137
BEESAT-8,2021-022AP,2024-12-30T17:18:46.450944,15.73466822,0.0011434,97.4765,273.5903,103.2949,256.959,0,U,48085,999,20823,0.0029596,0.00432562,0.0,6727.134559725418,CubeSat,5491.062580662004,1.525295161295001,356.1345597254176,6719.442754069827,6734.826365381007
CANX-2,2008-021H,2024-12-30T15:50:39.171840,14.99077033,0.0013596,97.7953,328.7501,48.4298,311.8088,0,U,32790,999,90476,0.0010983,0.00013317,0.0,6947.883712407913,CubeSat,5763.549569501919,1.600985991528311,576.8837124079128,6938.437369712523,6957.330055103303
